{
  "type": "FeatureCollection",
  "features": [
    {
      "type": "Feature",
      "geometry": {
        "type": "LineString",
        "coordinates": [
          [
            72.8853974,
            19.0706224
          ],
          [
            72.8842381,
            19.0697424
          ],
          [
            72.8840941,
            19.0695718
          ],
          [
            72.8839442,
            19.0695872
          ],
          [
            72.8836606,
            19.0693839
          ],
          [
            72.8831041,
            19.0689849
          ],
          [
            72.882601,
            19.0684774
          ],
          [
            72.8824181,
            19.0682148
          ]
        ]
      },
      "properties": {
        "osm_id": 49678380,
        "waterway": "drain",
        "name": ""
      }
    },
    {
      "type": "Feature",
      "geometry": {
        "type": "LineString",
        "coordinates": [
          [
            72.8857097,
            19.0737974
          ],
          [
            72.8860121,
            19.0712919
          ],
          [
            72.8860677,
            19.0710923
          ],
          [
            72.8872994,
            19.0695861
          ],
          [
            72.8877367,
            19.0693715
          ],
          [
            72.8881071,
            19.0690638
          ],
          [
            72.88749,
            19.0685017
          ],
          [
            72.8878604,
            19.067866
          ],
          [
            72.8886865,
            19.067075
          ],
          [
            72.888494,
            19.0660235
          ]
        ]
      },
      "properties": {
        "osm_id": 102240258,
        "waterway": "drain",
        "name": ""
      }
    },
    {
      "type": "Feature",
      "geometry": {
        "type": "LineString",
        "coordinates": [
          [
            72.8854713,
            19.0617398
          ],
          [
            72.8853133,
            19.0616212
          ],
          [
            72.8845674,
            19.0610485
          ],
          [
            72.8832578,
            19.0601094
          ],
          [
            72.8811765,
            19.0587708
          ],
          [
            72.8809002,
            19.0586441
          ],
          [
            72.8806078,
            19.0585604
          ],
          [
            72.8804415,
            19.0585047
          ],
          [
            72.8801572,
            19.0583652
          ],
          [
            72.879901,
            19.0580589
          ],
          [
            72.8796649,
            19.0578257
          ],
          [
            72.8794396,
            19.0577243
          ],
          [
            72.8791714,
            19.0575012
          ],
          [
            72.8790212,
            19.0573491
          ],
          [
            72.8788066,
            19.0571767
          ],
          [
            72.8784955,
            19.0570245
          ],
          [
            72.8783453,
            19.0568116
          ],
          [
            72.8781951,
            19.0565581
          ],
          [
            72.8780127,
            19.0563755
          ],
          [
            72.8777552,
            19.0561626
          ],
          [
            72.877605,
            19.0559293
          ],
          [
            72.8775299,
            19.0557265
          ],
          [
            72.8775299,
            19.0553209
          ],
          [
            72.8775299,
            19.0550775
          ],
          [
            72.8775835,
            19.0546921
          ],
          [
            72.8776694,
            19.0541952
          ],
          [
            72.8778196,
            19.0537186
          ],
          [
            72.8778628,
            19.053171
          ],
          [
            72.8778625,
            19.0526944
          ],
          [
            72.877994,
            19.0520491
          ],
          [
            72.8782753,
            19.0513121
          ],
          [
            72.8780345,
            19.050986
          ],
          [
            72.8776785,
            19.05063
          ],
          [
            72.877562,
            19.050092
          ],
          [
            72.8775406,
            19.0498548
          ],
          [
            72.8776479,
            19.0495303
          ],
          [
            72.8779376,
            19.0486987
          ],
          [
            72.8780624,
            19.0483053
          ],
          [
            72.8781243,
            19.0479587
          ]
        ]
      },
      "properties": {
        "osm_id": 107213229,
        "waterway": "drain",
        "name": ""
      }
    },
    {
      "type": "Feature",
      "geometry": {
        "type": "LineString",
        "coordinates": [
          [
            72.8824181,
            19.0682148
          ],
          [
            72.8825671,
            19.0680044
          ],
          [
            72.8827574,
            19.0676964
          ],
          [
            72.8829972,
            19.0670879
          ],
          [
            72.8830948,
            19.0668502
          ],
          [
            72.8832577,
            19.0667396
          ],
          [
            72.8838063,
            19.0655426
          ],
          [
            72.8847836,
            19.0632936
          ],
          [
            72.8850723,
            19.0627642
          ],
          [
            72.8854713,
            19.0617398
          ]
        ]
      },
      "properties": {
        "osm_id": 107213252,
        "waterway": "drain",
        "name": ""
      }
    },
    {
      "type": "Feature",
      "geometry": {
        "type": "LineString",
        "coordinates": [
          [
            72.888494,
            19.0660235
          ],
          [
            72.8880656,
            19.0651776
          ],
          [
            72.8875399,
            19.0642345
          ],
          [
            72.8871274,
            19.0635241
          ],
          [
            72.8865589,
            19.0627649
          ],
          [
            72.8863174,
            19.0625259
          ],
          [
            72.886145,
            19.0623817
          ],
          [
            72.8861136,
            19.0622267
          ],
          [
            72.8860676,
            19.062124
          ],
          [
            72.8854713,
            19.0617398
          ]
        ]
      },
      "properties": {
        "osm_id": 125344254,
        "waterway": "drain",
        "name": ""
      }
    },
    {
      "type": "Feature",
      "geometry": {
        "type": "LineString",
        "coordinates": [
          [
            72.8854887,
            19.0824254
          ],
          [
            72.8895787,
            19.0804116
          ],
          [
            72.889658,
            19.0802124
          ],
          [
            72.8896224,
            19.0794371
          ],
          [
            72.8898027,
            19.0787149
          ],
          [
            72.890493,
            19.0774481
          ]
        ]
      },
      "properties": {
        "osm_id": 125344259,
        "waterway": "drain",
        "name": ""
      }
    },
    {
      "type": "Feature",
      "geometry": {
        "type": "LineString",
        "coordinates": [
          [
            72.8777907915899,
            19.047805371746115
          ],
          [
            72.8781243,
            19.0479587
          ]
        ]
      },
      "properties": {
        "osm_id": 151501185,
        "waterway": "stream",
        "name": ""
      }
    },
    {
      "type": "Feature",
      "geometry": {
        "type": "MultiLineString",
        "coordinates": [
          [
            [
              72.8786950485183,
              19.086008368652617
            ],
            [
              72.8786636,
              19.0854841
            ],
            [
              72.8778152,
              19.0837726
            ],
            [
              72.8775705,
              19.083233
            ],
            [
              72.8776112,
              19.0819995
            ],
            [
              72.8784841,
              19.0806042
            ],
            [
              72.8786806,
              19.0797335
            ],
            [
              72.8785657,
              19.0793244
            ],
            [
              72.8779946,
              19.078885
            ],
            [
              72.8772278,
              19.0788773
            ],
            [
              72.8765997,
              19.0790469
            ],
            [
              72.8763395,
              19.0789818
            ],
            [
              72.8762262,
              19.0789534
            ],
            [
              72.8755393,
              19.0778288
            ],
            [
              72.8748867,
              19.0772737
            ],
            [
              72.8735798,
              19.076672
            ],
            [
              72.87210731659627,
              19.075877320820783
            ]
          ],
          [
            [
              72.87199663026294,
              19.07367204891423
            ],
            [
              72.87205935601445,
              19.07347523937838
            ]
          ]
        ]
      },
      "properties": {
        "osm_id": 204352191,
        "waterway": "river",
        "name": "Mithi River"
      }
    },
    {
      "type": "Feature",
      "geometry": {
        "type": "MultiLineString",
        "coordinates": [
          [
            [
              72.8788436,
              19.0912659
            ],
            [
              72.87884192823502,
              19.091140356069474
            ]
          ],
          [
            [
              72.87884022507775,
              19.09101245468347
            ],
            [
              72.87883674289512,
              19.090750954472867
            ]
          ],
          [
            [
              72.8788099250337,
              19.08873702322508
            ],
            [
              72.87880188977684,
              19.08813360244371
            ]
          ]
        ]
      },
      "properties": {
        "osm_id": 204352192,
        "waterway": "river",
        "name": "Mithi River"
      }
    },
    {
      "type": "Feature",
      "geometry": {
        "type": "LineString",
        "coordinates": [
          [
            72.8666992,
            19.0543946
          ],
          [
            72.8663169,
            19.0544797
          ],
          [
            72.86612400383042,
            19.054448485667884
          ]
        ]
      },
      "properties": {
        "osm_id": 219943420,
        "waterway": "stream",
        "name": ""
      }
    },
    {
      "type": "Feature",
      "geometry": {
        "type": "LineString",
        "coordinates": [
          [
            72.87485914157654,
            19.049477810665724
          ],
          [
            72.8749323,
            19.0494538
          ],
          [
            72.87494353081769,
            19.049439687083368
          ]
        ]
      },
      "properties": {
        "osm_id": 219943421,
        "waterway": "stream",
        "name": ""
      }
    },
    {
      "type": "Feature",
      "geometry": {
        "type": "LineString",
        "coordinates": [
          [
            72.86580039838738,
            19.0523690093657
          ],
          [
            72.8662478,
            19.0530365
          ]
        ]
      },
      "properties": {
        "osm_id": 219943423,
        "waterway": "drain",
        "name": ""
      }
    },
    {
      "type": "Feature",
      "geometry": {
        "type": "LineString",
        "coordinates": [
          [
            72.8781243,
            19.0479587
          ],
          [
            72.8782784328339,
            19.047880136824844
          ]
        ]
      },
      "properties": {
        "osm_id": 219948755,
        "waterway": "stream",
        "name": ""
      }
    },
    {
      "type": "Feature",
      "geometry": {
        "type": "LineString",
        "coordinates": [
          [
            72.8662478,
            19.0530365
          ],
          [
            72.866523,
            19.053511
          ],
          [
            72.8666394,
            19.0538742
          ],
          [
            72.8666992,
            19.0543946
          ]
        ]
      },
      "properties": {
        "osm_id": 257412667,
        "waterway": "drain",
        "name": ""
      }
    },
    {
      "type": "Feature",
      "geometry": {
        "type": "LineString",
        "coordinates": [
          [
            72.8680801,
            19.0536726
          ],
          [
            72.8675715,
            19.0538716
          ],
          [
            72.8666992,
            19.0543946
          ]
        ]
      },
      "properties": {
        "osm_id": 420108368,
        "waterway": "stream",
        "name": ""
      }
    },
    {
      "type": "Feature",
      "geometry": {
        "type": "LineString",
        "coordinates": [
          [
            72.8838903,
            19.0743087
          ],
          [
            72.8853733,
            19.0739975
          ],
          [
            72.8855944,
            19.0739048
          ],
          [
            72.8857097,
            19.0737974
          ]
        ]
      },
      "properties": {
        "osm_id": 427242813,
        "waterway": "drain",
        "name": ""
      }
    },
    {
      "type": "Feature",
      "geometry": {
        "type": "LineString",
        "coordinates": [
          [
            72.892581,
            19.0792929
          ],
          [
            72.8924293,
            19.0790167
          ],
          [
            72.8917453,
            19.0784644
          ],
          [
            72.890684,
            19.0775719
          ],
          [
            72.890493,
            19.0774481
          ],
          [
            72.8903162,
            19.0773171
          ],
          [
            72.8868433,
            19.0746635
          ],
          [
            72.8865836,
            19.0744651
          ],
          [
            72.8857097,
            19.0737974
          ]
        ]
      },
      "properties": {
        "osm_id": 427242814,
        "waterway": "drain",
        "name": ""
      }
    },
    {
      "type": "Feature",
      "geometry": {
        "type": "LineString",
        "coordinates": [
          [
            72.87351624624561,
            19.076856387057884
          ],
          [
            72.8735233,
            19.0768261
          ],
          [
            72.8735494,
            19.0767139
          ]
        ]
      },
      "properties": {
        "osm_id": 436370690,
        "waterway": "drain",
        "name": ""
      }
    },
    {
      "type": "Feature",
      "geometry": {
        "type": "LineString",
        "coordinates": [
          [
            72.8802739,
            19.0801442
          ],
          [
            72.879598,
            19.0800631
          ],
          [
            72.8793542,
            19.0799755
          ]
        ]
      },
      "properties": {
        "osm_id": 436370692,
        "waterway": "drain",
        "name": ""
      }
    },
    {
      "type": "Feature",
      "geometry": {
        "type": "LineString",
        "coordinates": [
          [
            72.8706421,
            19.081622
          ],
          [
            72.8734584,
            19.0802836
          ],
          [
            72.874306,
            19.0799312
          ],
          [
            72.8759663,
            19.0791682
          ],
          [
            72.8763395,
            19.0789818
          ]
        ]
      },
      "properties": {
        "osm_id": 436370694,
        "waterway": "drain",
        "name": ""
      }
    },
    {
      "type": "Feature",
      "geometry": {
        "type": "LineString",
        "coordinates": [
          [
            72.87342007149327,
            19.07682626034968
          ],
          [
            72.8734333,
            19.0768009
          ],
          [
            72.8735494,
            19.0767139
          ],
          [
            72.8735798,
            19.076672
          ]
        ]
      },
      "properties": {
        "osm_id": 436370696,
        "waterway": "drain",
        "name": ""
      }
    },
    {
      "type": "Feature",
      "geometry": {
        "type": "LineString",
        "coordinates": [
          [
            72.8853974,
            19.0706224
          ],
          [
            72.8858408,
            19.0711934
          ],
          [
            72.8860121,
            19.0712919
          ]
        ]
      },
      "properties": {
        "osm_id": 542236632,
        "waterway": "drain",
        "name": ""
      }
    },
    {
      "type": "Feature",
      "geometry": {
        "type": "LineString",
        "coordinates": [
          [
            72.8833675,
            19.0730053
          ],
          [
            72.8838302,
            19.0725311
          ],
          [
            72.8839605,
            19.0723186
          ],
          [
            72.8840583,
            19.0720723
          ],
          [
            72.8853974,
            19.0706224
          ]
        ]
      },
      "properties": {
        "osm_id": 542236633,
        "waterway": "drain",
        "name": ""
      }
    },
    {
      "type": "Feature",
      "geometry": {
        "type": "LineString",
        "coordinates": [
          [
            72.8821635,
            19.0545858
          ],
          [
            72.8823861,
            19.0541549
          ],
          [
            72.88264131496102,
            19.054095293874237
          ]
        ]
      },
      "properties": {
        "osm_id": 1126997785,
        "waterway": "drain",
        "name": ""
      }
    },
    {
      "type": "Feature",
      "geometry": {
        "type": "LineString",
        "coordinates": [
          [
            72.8803111,
            19.0657868
          ],
          [
            72.8783591,
            19.0642944
          ]
        ]
      },
      "properties": {
        "osm_id": 1502558248,
        "waterway": "drain",
        "name": ""
      }
    },
    {
      "type": "Feature",
      "geometry": {
        "type": "LineString",
        "coordinates": [
          [
            72.8792934,
            19.0799537
          ],
          [
            72.8786806,
            19.0797335
          ]
        ]
      },
      "properties": {
        "osm_id": 1508895773,
        "waterway": "drain",
        "name": ""
      }
    },
    {
      "type": "Feature",
      "geometry": {
        "type": "LineString",
        "coordinates": [
          [
            72.8793542,
            19.0799755
          ],
          [
            72.8792934,
            19.0799537
          ]
        ]
      },
      "properties": {
        "osm_id": 1508895774,
        "waterway": "drain",
        "name": ""
      }
    },
    {
      "type": "Feature",
      "geometry": {
        "type": "LineString",
        "coordinates": [
          [
            72.89085982592226,
            19.065425017672595
          ],
          [
            72.890479,
            19.0655409
          ],
          [
            72.888494,
            19.0660235
          ]
        ]
      },
      "properties": {
        "osm_id": 107213240,
        "waterway": "drain",
        "name": ""
      }
    },
    {
      "type": "Feature",
      "geometry": {
        "type": "LineString",
        "coordinates": [
          [
            72.8896319,
            19.0710555
          ],
          [
            72.8884641,
            19.0701831
          ],
          [
            72.8888055,
            19.0697839
          ],
          [
            72.8881071,
            19.0690638
          ]
        ]
      },
      "properties": {
        "osm_id": 125344258,
        "waterway": "drain",
        "name": ""
      }
    },
    {
      "type": "Feature",
      "geometry": {
        "type": "LineString",
        "coordinates": [
          [
            72.8919138,
            19.0810864
          ],
          [
            72.892581,
            19.0792929
          ]
        ]
      },
      "properties": {
        "osm_id": 1172947231,
        "waterway": "drain",
        "name": ""
      }
    },
    {
      "type": "Feature",
      "geometry": {
        "type": "LineString",
        "coordinates": [
          [
            72.8878433,
            19.1000977
          ],
          [
            72.8877748,
            19.1000828
          ],
          [
            72.8875495,
            19.0999814
          ],
          [
            72.8874422,
            19.099951
          ],
          [
            72.8873563,
            19.100022
          ],
          [
            72.8872705,
            19.1001132
          ],
          [
            72.8871954,
            19.1002247
          ],
          [
            72.8870774,
            19.1002349
          ],
          [
            72.8869379,
            19.1002146
          ],
          [
            72.8867984,
            19.1001234
          ],
          [
            72.8866375,
            19.1000727
          ],
          [
            72.886498,
            19.1000017
          ],
          [
            72.8864766,
            19.09988
          ],
          [
            72.8864444,
            19.0997584
          ],
          [
            72.8863478,
            19.0996671
          ],
          [
            72.8862405,
            19.0996773
          ],
          [
            72.8861011,
            19.0997077
          ],
          [
            72.886026,
            19.0997685
          ],
          [
            72.8859187,
            19.0997584
          ],
          [
            72.8858543,
            19.0996165
          ],
          [
            72.8858221,
            19.0994644
          ],
          [
            72.8857518,
            19.0992667
          ],
          [
            72.885698,
            19.0991045
          ],
          [
            72.8856342,
            19.0988867
          ],
          [
            72.8855324,
            19.0987958
          ],
          [
            72.8854332,
            19.0987449
          ],
          [
            72.8851999,
            19.098633
          ],
          [
            72.8850711,
            19.0985722
          ],
          [
            72.8847669,
            19.098407
          ],
          [
            72.884744,
            19.0982869
          ],
          [
            72.8849102,
            19.0980957
          ],
          [
            72.884974,
            19.0979003
          ],
          [
            72.8850175,
            19.0977814
          ],
          [
            72.8850604,
            19.0976395
          ],
          [
            72.8850604,
            19.097528
          ],
          [
            72.8849745,
            19.097457
          ],
          [
            72.8848136,
            19.0974266
          ],
          [
            72.8846849,
            19.0974164
          ],
          [
            72.8845132,
            19.0974266
          ],
          [
            72.8843201,
            19.0974671
          ],
          [
            72.8842021,
            19.097528
          ],
          [
            72.884127,
            19.0975888
          ],
          [
            72.8839875,
            19.0975685
          ],
          [
            72.8838373,
            19.0974874
          ],
          [
            72.8837193,
            19.0974367
          ],
          [
            72.8836549,
            19.0973151
          ],
          [
            72.8836656,
            19.0971224
          ],
          [
            72.8836978,
            19.0969805
          ],
          [
            72.8837193,
            19.0968183
          ],
          [
            72.8836556,
            19.0968124
          ],
          [
            72.8833918,
            19.0967522
          ],
          [
            72.8831828,
            19.0966865
          ],
          [
            72.8830326,
            19.0966865
          ],
          [
            72.8828288,
            19.0966966
          ],
          [
            72.8826571,
            19.0966966
          ],
          [
            72.8825176,
            19.0966155
          ],
          [
            72.8823353,
            19.0965344
          ],
          [
            72.8821636,
            19.0964938
          ],
          [
            72.8820241,
            19.0964938
          ],
          [
            72.8818632,
            19.0964634
          ],
          [
            72.8816808,
            19.0964026
          ],
          [
            72.8813877,
            19.0962951
          ],
          [
            72.8812889,
            19.0962589
          ],
          [
            72.8808538,
            19.09605
          ],
          [
            72.88066218301219,
            19.095983501495663
          ]
        ]
      },
      "properties": {
        "osm_id": 49011971,
        "waterway": "drain",
        "name": ""
      }
    },
    {
      "type": "Feature",
      "geometry": {
        "type": "MultiLineString",
        "coordinates": [
          [
            [
              72.88061346923372,
              19.095935839139763
            ],
            [
              72.880499,
              19.0957984
            ],
            [
              72.8801564,
              19.0954593
            ],
            [
              72.8799606,
              19.0948811
            ],
            [
              72.87961064517955,
              19.09466598968207
            ]
          ],
          [
            [
              72.87930778220344,
              19.094479825790977
            ],
            [
              72.8792835,
              19.0944649
            ],
            [
              72.8788267,
              19.0940871
            ],
            [
              72.8784759,
              19.0933934
            ],
            [
              72.8786079,
              19.0921225
            ],
            [
              72.8788436,
              19.0912659
            ]
          ]
        ]
      },
      "properties": {
        "osm_id": 204352194,
        "waterway": "river",
        "name": "Mithi River"
      }
    },
    {
      "type": "Feature",
      "geometry": {
        "type": "MultiLineString",
        "coordinates": [
          [
            [
              72.885900362404,
              19.118693675021625
            ],
            [
              72.8858515,
              19.118387
            ],
            [
              72.88588038215515,
              19.118161914316826
            ]
          ],
          [
            [
              72.8861391528721,
              19.11640639334384
            ],
            [
              72.88622212427973,
              19.115946640336404
            ]
          ],
          [
            [
              72.87966047410664,
              19.10104751867403
            ],
            [
              72.8792101,
              19.0997991
            ],
            [
              72.8790388,
              19.0989666
            ],
            [
              72.8791448,
              19.098612
            ],
            [
              72.87938327182232,
              19.09849276408883
            ]
          ],
          [
            [
              72.88009892425843,
              19.098388476669133
            ],
            [
              72.8802216,
              19.0983731
            ],
            [
              72.8808416,
              19.0980185
            ],
            [
              72.880964,
              19.097317
            ],
            [
              72.8810129,
              19.0964151
            ],
            [
              72.88081256249231,
              19.096174739093687
            ]
          ]
        ]
      },
      "properties": {
        "osm_id": 235932509,
        "waterway": "river",
        "name": "Mithi River"
      }
    },
    {
      "type": "Feature",
      "geometry": {
        "type": "LineString",
        "coordinates": [
          [
            72.8792101,
            19.0997991
          ],
          [
            72.87915925916579,
            19.099817620247332
          ]
        ]
      },
      "properties": {
        "osm_id": 1456263512,
        "waterway": "drain",
        "name": ""
      }
    },
    {
      "type": "Feature",
      "geometry": {
        "type": "LineString",
        "coordinates": [
          [
            72.8918421,
            19.1020023
          ],
          [
            72.8920284,
            19.1018736
          ],
          [
            72.8921201,
            19.1019089
          ],
          [
            72.8924535,
            19.1023443
          ],
          [
            72.8925538,
            19.1025861
          ],
          [
            72.8932866,
            19.1023774
          ],
          [
            72.8933047,
            19.1023514
          ],
          [
            72.8932662,
            19.1022518
          ],
          [
            72.8932626,
            19.1022201
          ],
          [
            72.8932654,
            19.1021993
          ],
          [
            72.8932733,
            19.102186
          ],
          [
            72.8935008,
            19.1021385
          ],
          [
            72.8935866,
            19.1021206
          ]
        ]
      },
      "properties": {
        "osm_id": 215261321,
        "waterway": "canal",
        "name": ""
      }
    },
    {
      "type": "Feature",
      "geometry": {
        "type": "LineString",
        "coordinates": [
          [
            72.8987437,
            19.117903
          ],
          [
            72.898208,
            19.1166304
          ],
          [
            72.8978803,
            19.1159981
          ],
          [
            72.8977797,
            19.1154212
          ],
          [
            72.897756,
            19.1145412
          ],
          [
            72.897627,
            19.1142411
          ],
          [
            72.8975235,
            19.1133254
          ],
          [
            72.8972662,
            19.1112286
          ],
          [
            72.8969215,
            19.109466
          ],
          [
            72.8964063,
            19.1095528
          ],
          [
            72.8963317,
            19.1093676
          ],
          [
            72.8962415,
            19.1091382
          ],
          [
            72.8961617,
            19.1090038
          ],
          [
            72.896068,
            19.1089677
          ],
          [
            72.8957905,
            19.1089841
          ],
          [
            72.8955164,
            19.1088038
          ],
          [
            72.8953638,
            19.1086563
          ],
          [
            72.8952146,
            19.1084465
          ],
          [
            72.8947046,
            19.108358
          ],
          [
            72.8944895,
            19.1081678
          ],
          [
            72.8943924,
            19.1080892
          ],
          [
            72.894212,
            19.1080334
          ],
          [
            72.8939483,
            19.1080236
          ],
          [
            72.8938026,
            19.1078663
          ],
          [
            72.893303,
            19.1076532
          ],
          [
            72.8932475,
            19.1075647
          ],
          [
            72.8931677,
            19.1074598
          ],
          [
            72.8929908,
            19.1074663
          ],
          [
            72.8925467,
            19.1076466
          ],
          [
            72.8924149,
            19.1074073
          ],
          [
            72.8922978,
            19.1070243
          ]
        ]
      },
      "properties": {
        "osm_id": 366912384,
        "waterway": "drain",
        "name": ""
      }
    },
    {
      "type": "Feature",
      "geometry": {
        "type": "LineString",
        "coordinates": [
          [
            72.8910988,
            19.1057273
          ],
          [
            72.8907115,
            19.1055682
          ],
          [
            72.8906088,
            19.1054218
          ],
          [
            72.8905869,
            19.1052579
          ],
          [
            72.8905734,
            19.105164
          ],
          [
            72.8905212,
            19.1051401
          ],
          [
            72.8903528,
            19.1051338
          ],
          [
            72.8902703,
            19.1050621
          ],
          [
            72.890213,
            19.1049539
          ],
          [
            72.890112,
            19.1049476
          ],
          [
            72.8900413,
            19.1049062
          ],
          [
            72.8900379,
            19.1047757
          ],
          [
            72.8901322,
            19.1046166
          ],
          [
            72.890144,
            19.1045577
          ],
          [
            72.8900817,
            19.1044988
          ],
          [
            72.8898459,
            19.1044416
          ],
          [
            72.8897572,
            19.1044459
          ]
        ]
      },
      "properties": {
        "osm_id": 366912385,
        "waterway": "drain",
        "name": ""
      }
    },
    {
      "type": "Feature",
      "geometry": {
        "type": "LineString",
        "coordinates": [
          [
            72.8935866,
            19.1021206
          ],
          [
            72.8938043,
            19.1020972
          ],
          [
            72.8946578,
            19.1020227
          ],
          [
            72.8951173,
            19.1021459
          ],
          [
            72.8951082,
            19.1023434
          ],
          [
            72.8951209,
            19.1023766
          ],
          [
            72.8951478,
            19.1023999
          ],
          [
            72.8959835,
            19.1024288
          ]
        ]
      },
      "properties": {
        "osm_id": 992670280,
        "waterway": "canal",
        "name": ""
      }
    },
    {
      "type": "Feature",
      "geometry": {
        "type": "LineString",
        "coordinates": [
          [
            72.8898158,
            19.1018356
          ],
          [
            72.8896416,
            19.1016339
          ],
          [
            72.8894807,
            19.1015934
          ],
          [
            72.8893014,
            19.1015011
          ],
          [
            72.8891164,
            19.1013269
          ],
          [
            72.8891695,
            19.1010459
          ],
          [
            72.8891159,
            19.1009243
          ],
          [
            72.8890515,
            19.1007114
          ],
          [
            72.889073,
            19.100539
          ],
          [
            72.8889871,
            19.1004579
          ],
          [
            72.8888798,
            19.1004782
          ],
          [
            72.8887726,
            19.1005086
          ],
          [
            72.888676,
            19.1005492
          ],
          [
            72.8886223,
            19.1004275
          ],
          [
            72.8885902,
            19.1003363
          ],
          [
            72.8884936,
            19.1002247
          ],
          [
            72.8883005,
            19.1001335
          ],
          [
            72.8881825,
            19.1001538
          ],
          [
            72.8880537,
            19.1001436
          ]
        ]
      },
      "properties": {
        "osm_id": 1156851567,
        "waterway": "drain",
        "name": ""
      }
    },
    {
      "type": "Feature",
      "geometry": {
        "type": "LineString",
        "coordinates": [
          [
            72.8880068,
            19.1001334
          ],
          [
            72.8879578,
            19.1001227
          ]
        ]
      },
      "properties": {
        "osm_id": 1156851568,
        "waterway": "drain",
        "name": ""
      }
    },
    {
      "type": "Feature",
      "geometry": {
        "type": "LineString",
        "coordinates": [
          [
            72.8878818,
            19.1001061
          ],
          [
            72.8878433,
            19.1000977
          ]
        ]
      },
      "properties": {
        "osm_id": 1156851569,
        "waterway": "drain",
        "name": ""
      }
    },
    {
      "type": "Feature",
      "geometry": {
        "type": "LineString",
        "coordinates": [
          [
            72.8879578,
            19.1001227
          ],
          [
            72.8878818,
            19.1001061
          ]
        ]
      },
      "properties": {
        "osm_id": 1156851570,
        "waterway": "drain",
        "name": ""
      }
    },
    {
      "type": "Feature",
      "geometry": {
        "type": "LineString",
        "coordinates": [
          [
            72.8880537,
            19.1001436
          ],
          [
            72.8880068,
            19.1001334
          ]
        ]
      },
      "properties": {
        "osm_id": 1156851571,
        "waterway": "drain",
        "name": ""
      }
    },
    {
      "type": "Feature",
      "geometry": {
        "type": "LineString",
        "coordinates": [
          [
            72.8895405,
            19.1044681
          ],
          [
            72.8894114,
            19.1045116
          ],
          [
            72.8893104,
            19.1045132
          ],
          [
            72.8890123,
            19.1043349
          ],
          [
            72.8889366,
            19.1042522
          ],
          [
            72.8888052,
            19.1037732
          ],
          [
            72.8887479,
            19.1035377
          ],
          [
            72.8886267,
            19.1033627
          ],
          [
            72.8892929,
            19.1028153
          ],
          [
            72.8893763,
            19.1026911
          ],
          [
            72.8900544,
            19.1021344
          ],
          [
            72.8900503,
            19.1021279
          ]
        ]
      },
      "properties": {
        "osm_id": 1497268707,
        "waterway": "drain",
        "name": ""
      }
    },
    {
      "type": "Feature",
      "geometry": {
        "type": "LineString",
        "coordinates": [
          [
            72.8895815,
            19.1044543
          ],
          [
            72.8895405,
            19.1044681
          ]
        ]
      },
      "properties": {
        "osm_id": 1497268708,
        "waterway": "drain",
        "name": ""
      }
    },
    {
      "type": "Feature",
      "geometry": {
        "type": "LineString",
        "coordinates": [
          [
            72.8896187,
            19.1044525
          ],
          [
            72.8895815,
            19.1044543
          ]
        ]
      },
      "properties": {
        "osm_id": 1497268709,
        "waterway": "drain",
        "name": ""
      }
    },
    {
      "type": "Feature",
      "geometry": {
        "type": "LineString",
        "coordinates": [
          [
            72.8897572,
            19.1044459
          ],
          [
            72.8896187,
            19.1044525
          ]
        ]
      },
      "properties": {
        "osm_id": 1497268710,
        "waterway": "drain",
        "name": ""
      }
    },
    {
      "type": "Feature",
      "geometry": {
        "type": "LineString",
        "coordinates": [
          [
            72.8898451,
            19.1018803
          ],
          [
            72.8898158,
            19.1018356
          ]
        ]
      },
      "properties": {
        "osm_id": 1521665880,
        "waterway": "drain",
        "name": ""
      }
    },
    {
      "type": "Feature",
      "geometry": {
        "type": "LineString",
        "coordinates": [
          [
            72.8900503,
            19.1021279
          ],
          [
            72.8898451,
            19.1018803
          ]
        ]
      },
      "properties": {
        "osm_id": 1521665881,
        "waterway": "drain",
        "name": ""
      }
    },
    {
      "type": "Feature",
      "geometry": {
        "type": "LineString",
        "coordinates": [
          [
            72.8922978,
            19.1070243
          ],
          [
            72.8922237,
            19.1065802
          ],
          [
            72.8920216,
            19.1062938
          ],
          [
            72.8916579,
            19.1060742
          ],
          [
            72.8914435,
            19.1059411
          ]
        ]
      },
      "properties": {
        "osm_id": 1522280662,
        "waterway": "drain",
        "name": ""
      }
    },
    {
      "type": "Feature",
      "geometry": {
        "type": "LineString",
        "coordinates": [
          [
            72.8911938,
            19.1057862
          ],
          [
            72.8910988,
            19.1057273
          ]
        ]
      },
      "properties": {
        "osm_id": 1522280663,
        "waterway": "drain",
        "name": ""
      }
    },
    {
      "type": "Feature",
      "geometry": {
        "type": "LineString",
        "coordinates": [
          [
            72.8913552,
            19.1058863
          ],
          [
            72.8911938,
            19.1057862
          ]
        ]
      },
      "properties": {
        "osm_id": 1522639135,
        "waterway": "drain",
        "name": ""
      }
    },
    {
      "type": "Feature",
      "geometry": {
        "type": "LineString",
        "coordinates": [
          [
            72.8914435,
            19.1059411
          ],
          [
            72.8913552,
            19.1058863
          ]
        ]
      },
      "properties": {
        "osm_id": 1522639136,
        "waterway": "drain",
        "name": ""
      }
    }
  ]
}