{
"type": "FeatureCollection",
"name": "roads",
"crs": { "type": "name", "properties": { "name": "urn:ogc:def:crs:OGC:1.3:CRS84" } },
"features": [
{ "type": "Feature", "properties": { "asset_id": "R0", "u": 4357309669, "v": 6569435667, "osmid": 437953657, "highway": "residential", "length_m": 94.237367916901974 }, "geometry": { "type": "LineString", "coordinates": [ [ 72.8855997, 19.0603067 ], [ 72.8850582, 19.0609822 ] ] } },
{ "type": "Feature", "properties": { "asset_id": "R1", "u": 6569435667, "v": 4357309669, "osmid": 437953657, "highway": "residential", "length_m": 94.237367916901974 }, "geometry": { "type": "LineString", "coordinates": [ [ 72.8850582, 19.0609822 ], [ 72.8855997, 19.0603067 ] ] } },
{ "type": "Feature", "properties": { "asset_id": "R2", "u": 6569435667, "v": 6569435666, "osmid": 699576926, "highway": "residential", "length_m": 47.496452660002682 }, "geometry": { "type": "LineString", "coordinates": [ [ 72.8850582, 19.0609822 ], [ 72.8854319, 19.0612224 ] ] } },
{ "type": "Feature", "properties": { "asset_id": "R3", "u": 6569435666, "v": 6569435667, "osmid": 699576926, "highway": "residential", "length_m": 47.496452660002682 }, "geometry": { "type": "LineString", "coordinates": [ [ 72.8854319, 19.0612224 ], [ 72.8850582, 19.0609822 ] ] } },
{ "type": "Feature", "properties": { "asset_id": "R4", "u": 7380317955, "v": 7380317956, "osmid": 789317008, "highway": "residential", "length_m": 29.223184726778832 }, "geometry": { "type": "LineString", "coordinates": [ [ 72.8834293, 19.0701068 ], [ 72.8832351, 19.0702949 ] ] } },
{ "type": "Feature", "properties": { "asset_id": "R5", "u": 7380317956, "v": 7380317955, "osmid": 789317008, "highway": "residential", "length_m": 29.223184726778832 }, "geometry": { "type": "LineString", "coordinates": [ [ 72.8832351, 19.0702949 ], [ 72.8834293, 19.0701068 ] ] } },
{ "type": "Feature", "properties": { "asset_id": "R6", "u": 13788934622, "v": 13788934620, "osmid": 1508041069, "highway": "residential", "length_m": 22.257208631197635 }, "geometry": { "type": "LineString", "coordinates": [ [ 72.875241, 19.0564371 ], [ 72.875041, 19.0563713 ] ] } },
{ "type": "Feature", "properties": { "asset_id": "R7", "u": 13788934620, "v": 13788934622, "osmid": 1508041069, "highway": "residential", "length_m": 22.257208631197635 }, "geometry": { "type": "LineString", "coordinates": [ [ 72.875041, 19.0563713 ], [ 72.875241, 19.0564371 ] ] } },
{ "type": "Feature", "properties": { "asset_id": "R8", "u": 2246472615, "v": 2246472562, "osmid": 215242112, "highway": "residential", "length_m": 103.32210399549488 }, "geometry": { "type": "LineString", "coordinates": [ [ 72.88713, 19.0784551 ], [ 72.8877371, 19.0777242 ] ] } },
{ "type": "Feature", "properties": { "asset_id": "R9", "u": 2246472562, "v": 2246472615, "osmid": 215242112, "highway": "residential", "length_m": 103.32210399549488 }, "geometry": { "type": "LineString", "coordinates": [ [ 72.8877371, 19.0777242 ], [ 72.88713, 19.0784551 ] ] } },
{ "type": "Feature", "properties": { "asset_id": "R10", "u": 2246472562, "v": 2246472507, "osmid": 215242112, "highway": "residential", "length_m": 94.529107576333615 }, "geometry": { "type": "LineString", "coordinates": [ [ 72.8877371, 19.0777242 ], [ 72.8883021, 19.0770627 ] ] } },
{ "type": "Feature", "properties": { "asset_id": "R11", "u": 2246472562, "v": 13720592967, "osmid": 215242145, "highway": "residential", "length_m": 24.095229369729179 }, "geometry": { "type": "LineString", "coordinates": [ [ 72.8877371, 19.0777242 ], [ 72.887558, 19.0775889 ] ] } },
{ "type": "Feature", "properties": { "asset_id": "R12", "u": 2246472562, "v": 2246472604, "osmid": 215242145, "highway": "residential", "length_m": 95.060062852844183 }, "geometry": { "type": "LineString", "coordinates": [ [ 72.8877371, 19.0777242 ], [ 72.8884435, 19.0782582 ] ] } },
{ "type": "Feature", "properties": { "asset_id": "R13", "u": 2246472507, "v": 2246472562, "osmid": 215242112, "highway": "residential", "length_m": 94.529107576333615 }, "geometry": { "type": "LineString", "coordinates": [ [ 72.8883021, 19.0770627 ], [ 72.8877371, 19.0777242 ] ] } },
{ "type": "Feature", "properties": { "asset_id": "R14", "u": 2246472507, "v": 13720592986, "osmid": 215242149, "highway": "residential", "length_m": 23.196650931243802 }, "geometry": { "type": "LineString", "coordinates": [ [ 72.8883021, 19.0770627 ], [ 72.888131, 19.0769309 ] ] } },
{ "type": "Feature", "properties": { "asset_id": "R15", "u": 13720592967, "v": 13720592927, "osmid": 215242145, "highway": "residential", "length_m": 24.839581462224423 }, "geometry": { "type": "LineString", "coordinates": [ [ 72.887558, 19.0775889 ], [ 72.8873733, 19.0774495 ] ] } },
{ "type": "Feature", "properties": { "asset_id": "R16", "u": 13720592967, "v": 2246472562, "osmid": 215242145, "highway": "residential", "length_m": 24.095229369729179 }, "geometry": { "type": "LineString", "coordinates": [ [ 72.887558, 19.0775889 ], [ 72.8877371, 19.0777242 ] ] } },
{ "type": "Feature", "properties": { "asset_id": "R17", "u": 2246472604, "v": 2246472550, "osmid": 215242117, "highway": "residential", "length_m": 95.923948839744966 }, "geometry": { "type": "LineString", "coordinates": [ [ 72.8884435, 19.0782582 ], [ 72.889016, 19.0775863 ] ] } },
{ "type": "Feature", "properties": { "asset_id": "R18", "u": 2246472604, "v": 2246472562, "osmid": 215242145, "highway": "residential", "length_m": 95.060062852844183 }, "geometry": { "type": "LineString", "coordinates": [ [ 72.8884435, 19.0782582 ], [ 72.8877371, 19.0777242 ] ] } },
{ "type": "Feature", "properties": { "asset_id": "R19", "u": 2246472604, "v": 2246472640, "osmid": 215242145, "highway": "residential", "length_m": 97.488582365512784 }, "geometry": { "type": "LineString", "coordinates": [ [ 72.8884435, 19.0782582 ], [ 72.8891679, 19.0788059 ] ] } },
{ "type": "Feature", "properties": { "asset_id": "R20", "u": 13720592986, "v": 13720592979, "osmid": 215242149, "highway": "residential", "length_m": 21.986947866378003 }, "geometry": { "type": "LineString", "coordinates": [ [ 72.888131, 19.0769309 ], [ 72.8879688, 19.076806 ] ] } },
{ "type": "Feature", "properties": { "asset_id": "R21", "u": 13720592986, "v": 2246472507, "osmid": 215242149, "highway": "residential", "length_m": 23.196650931243802 }, "geometry": { "type": "LineString", "coordinates": [ [ 72.888131, 19.0769309 ], [ 72.8883021, 19.0770627 ] ] } },
{ "type": "Feature", "properties": { "asset_id": "R22", "u": 2246472550, "v": 2246472604, "osmid": 215242117, "highway": "residential", "length_m": 95.923948839744966 }, "geometry": { "type": "LineString", "coordinates": [ [ 72.889016, 19.0775863 ], [ 72.8884435, 19.0782582 ] ] } },
{ "type": "Feature", "properties": { "asset_id": "R23", "u": 2246472640, "v": 2246472604, "osmid": 215242145, "highway": "residential", "length_m": 97.488582365512784 }, "geometry": { "type": "LineString", "coordinates": [ [ 72.8891679, 19.0788059 ], [ 72.8884435, 19.0782582 ] ] } },
{ "type": "Feature", "properties": { "asset_id": "R24", "u": 2246472640, "v": 2246472588, "osmid": 215242175, "highway": "residential", "length_m": 94.482084224027091 }, "geometry": { "type": "LineString", "coordinates": [ [ 72.8891679, 19.0788059 ], [ 72.8897273, 19.0781407 ] ] } },
{ "type": "Feature", "properties": { "asset_id": "R25", "u": 2246472519, "v": 2246472471, "osmid": 215242118, "highway": "residential", "length_m": 96.903415667866525 }, "geometry": { "type": "LineString", "coordinates": [ [ 72.8870111, 19.0771899 ], [ 72.8875924, 19.0765134 ] ] } },
{ "type": "Feature", "properties": { "asset_id": "R26", "u": 2246472519, "v": 13720592924, "osmid": 215242145, "highway": "residential", "length_m": 21.433838184869895 }, "geometry": { "type": "LineString", "coordinates": [ [ 72.8870111, 19.0771899 ], [ 72.8868545, 19.0770664 ] ] } },
{ "type": "Feature", "properties": { "asset_id": "R27", "u": 2246472519, "v": 13720592947, "osmid": 215242145, "highway": "residential", "length_m": 27.627324934037766 }, "geometry": { "type": "LineString", "coordinates": [ [ 72.8870111, 19.0771899 ], [ 72.8872206, 19.07734 ] ] } },
{ "type": "Feature", "properties": { "asset_id": "R28", "u": 2246472471, "v": 2246472519, "osmid": 215242118, "highway": "residential", "length_m": 96.903415667866525 }, "geometry": { "type": "LineString", "coordinates": [ [ 72.8875924, 19.0765134 ], [ 72.8870111, 19.0771899 ] ] } },
{ "type": "Feature", "properties": { "asset_id": "R29", "u": 2246472471, "v": 13720592941, "osmid": 215242149, "highway": "residential", "length_m": 19.611943198133627 }, "geometry": { "type": "LineString", "coordinates": [ [ 72.8875924, 19.0765134 ], [ 72.8874478, 19.0764019 ] ] } },
{ "type": "Feature", "properties": { "asset_id": "R30", "u": 2246472471, "v": 13720592977, "osmid": 215242149, "highway": "residential", "length_m": 28.074444282056067 }, "geometry": { "type": "LineString", "coordinates": [ [ 72.8875924, 19.0765134 ], [ 72.8877981, 19.0766745 ] ] } },
{ "type": "Feature", "properties": { "asset_id": "R31", "u": 13720592924, "v": 13720592922, "osmid": 215242145, "highway": "residential", "length_m": 33.127110984538312 }, "geometry": { "type": "LineString", "coordinates": [ [ 72.8868545, 19.0770664 ], [ 72.8866124, 19.0768756 ] ] } },
{ "type": "Feature", "properties": { "asset_id": "R32", "u": 13720592924, "v": 2246472519, "osmid": 215242145, "highway": "residential", "length_m": 21.433838184869895 }, "geometry": { "type": "LineString", "coordinates": [ [ 72.8868545, 19.0770664 ], [ 72.8870111, 19.0771899 ] ] } },
{ "type": "Feature", "properties": { "asset_id": "R33", "u": 13720592947, "v": 2246472519, "osmid": 215242145, "highway": "residential", "length_m": 27.627324934037766 }, "geometry": { "type": "LineString", "coordinates": [ [ 72.8872206, 19.07734 ], [ 72.8870111, 19.0771899 ] ] } },
{ "type": "Feature", "properties": { "asset_id": "R34", "u": 13720592947, "v": 13720592927, "osmid": 215242145, "highway": "residential", "length_m": 20.143355414968127 }, "geometry": { "type": "LineString", "coordinates": [ [ 72.8872206, 19.07734 ], [ 72.8873733, 19.0774495 ] ] } },
{ "type": "Feature", "properties": { "asset_id": "R35", "u": 13720592941, "v": 13720592938, "osmid": 215242149, "highway": "residential", "length_m": 30.478265697114484 }, "geometry": { "type": "LineString", "coordinates": [ [ 72.8874478, 19.0764019 ], [ 72.8872219, 19.07623 ] ] } },
{ "type": "Feature", "properties": { "asset_id": "R36", "u": 13720592941, "v": 2246472471, "osmid": 215242149, "highway": "residential", "length_m": 19.611943198133627 }, "geometry": { "type": "LineString", "coordinates": [ [ 72.8874478, 19.0764019 ], [ 72.8875924, 19.0765134 ] ] } },
{ "type": "Feature", "properties": { "asset_id": "R37", "u": 13720592977, "v": 2246472471, "osmid": 215242149, "highway": "residential", "length_m": 28.074444282056067 }, "geometry": { "type": "LineString", "coordinates": [ [ 72.8877981, 19.0766745 ], [ 72.8875924, 19.0765134 ] ] } },
{ "type": "Feature", "properties": { "asset_id": "R38", "u": 13720592977, "v": 13720592979, "osmid": 215242149, "highway": "residential", "length_m": 23.143013736487848 }, "geometry": { "type": "LineString", "coordinates": [ [ 72.8877981, 19.0766745 ], [ 72.8879688, 19.076806 ] ] } },
{ "type": "Feature", "properties": { "asset_id": "R39", "u": 13720592922, "v": 13720592924, "osmid": 215242145, "highway": "residential", "length_m": 33.127110984538312 }, "geometry": { "type": "LineString", "coordinates": [ [ 72.8866124, 19.0768756 ], [ 72.8868545, 19.0770664 ] ] } },
{ "type": "Feature", "properties": { "asset_id": "R40", "u": 13720592927, "v": 13720592947, "osmid": 215242145, "highway": "residential", "length_m": 20.143355414968127 }, "geometry": { "type": "LineString", "coordinates": [ [ 72.8873733, 19.0774495 ], [ 72.8872206, 19.07734 ] ] } },
{ "type": "Feature", "properties": { "asset_id": "R41", "u": 13720592927, "v": 13720592967, "osmid": 215242145, "highway": "residential", "length_m": 24.839581462224423 }, "geometry": { "type": "LineString", "coordinates": [ [ 72.8873733, 19.0774495 ], [ 72.887558, 19.0775889 ] ] } },
{ "type": "Feature", "properties": { "asset_id": "R42", "u": 2246472588, "v": 2246472640, "osmid": 215242175, "highway": "residential", "length_m": 94.482084224027091 }, "geometry": { "type": "LineString", "coordinates": [ [ 72.8897273, 19.0781407 ], [ 72.8891679, 19.0788059 ] ] } },
{ "type": "Feature", "properties": { "asset_id": "R43", "u": 13720592938, "v": 13720592941, "osmid": 215242149, "highway": "residential", "length_m": 30.478265697114484 }, "geometry": { "type": "LineString", "coordinates": [ [ 72.8872219, 19.07623 ], [ 72.8874478, 19.0764019 ] ] } },
{ "type": "Feature", "properties": { "asset_id": "R44", "u": 13720592979, "v": 13720592977, "osmid": 215242149, "highway": "residential", "length_m": 23.143013736487848 }, "geometry": { "type": "LineString", "coordinates": [ [ 72.8879688, 19.076806 ], [ 72.8877981, 19.0766745 ] ] } },
{ "type": "Feature", "properties": { "asset_id": "R45", "u": 13720592979, "v": 13720592986, "osmid": 215242149, "highway": "residential", "length_m": 21.986947866378003 }, "geometry": { "type": "LineString", "coordinates": [ [ 72.8879688, 19.076806 ], [ 72.888131, 19.0769309 ] ] } },
{ "type": "Feature", "properties": { "asset_id": "R46", "u": 2246471679, "v": 6586250295, "osmid": 215242158, "highway": "residential", "length_m": 34.944647302687102 }, "geometry": { "type": "LineString", "coordinates": [ [ 72.8863847, 19.0614787 ], [ 72.8866358, 19.0616847 ] ] } },
{ "type": "Feature", "properties": { "asset_id": "R47", "u": 6586250295, "v": 2246471679, "osmid": 215242158, "highway": "residential", "length_m": 34.944647302687102 }, "geometry": { "type": "LineString", "coordinates": [ [ 72.8866358, 19.0616847 ], [ 72.8863847, 19.0614787 ] ] } },
{ "type": "Feature", "properties": { "asset_id": "R48", "u": 6567709173, "v": 6567709171, "osmid": 215242158, "highway": "residential", "length_m": 36.899251234874711 }, "geometry": { "type": "LineString", "coordinates": [ [ 72.8870651, 19.0620495 ], [ 72.8872863, 19.0623072 ] ] } },
{ "type": "Feature", "properties": { "asset_id": "R49", "u": 6567709171, "v": 6567709173, "osmid": 215242158, "highway": "residential", "length_m": 36.899251234874711 }, "geometry": { "type": "LineString", "coordinates": [ [ 72.8872863, 19.0623072 ], [ 72.8870651, 19.0620495 ] ] } },
{ "type": "Feature", "properties": { "asset_id": "R50", "u": 13790024756, "v": 13790024753, "osmid": 1508243809, "highway": "residential", "length_m": 5.3615266164470725 }, "geometry": { "type": "LineString", "coordinates": [ [ 72.8894454, 19.0656273 ], [ 72.8893961, 19.0656397 ] ] } },
{ "type": "Feature", "properties": { "asset_id": "R51", "u": 13790024753, "v": 13790024756, "osmid": 1508243809, "highway": "residential", "length_m": 5.3615266164470725 }, "geometry": { "type": "LineString", "coordinates": [ [ 72.8893961, 19.0656397 ], [ 72.8894454, 19.0656273 ] ] } },
{ "type": "Feature", "properties": { "asset_id": "R52", "u": 2246473263, "v": 2246473251, "osmid": 235864138, "highway": "unclassified", "length_m": 23.814521356038362 }, "geometry": { "type": "LineString", "coordinates": [ [ 72.8839793, 19.0908992 ], [ 72.8839528, 19.0906865 ] ] } },
{ "type": "Feature", "properties": { "asset_id": "R53", "u": 2246473251, "v": 2246473263, "osmid": 235864138, "highway": "unclassified", "length_m": 23.814521356038362 }, "geometry": { "type": "LineString", "coordinates": [ [ 72.8839528, 19.0906865 ], [ 72.8839793, 19.0908992 ] ] } },
{ "type": "Feature", "properties": { "asset_id": "R54", "u": 13713013518, "v": 1366097219, "osmid": 122187935, "highway": "secondary", "length_m": 60.665392258919411 }, "geometry": { "type": "LineString", "coordinates": [ [ 72.8991261, 19.0943798 ], [ 72.8986111, 19.0946264 ] ] } },
{ "type": "Feature", "properties": { "asset_id": "R55", "u": 1366097219, "v": 13713013518, "osmid": 122187935, "highway": "secondary", "length_m": 60.665392258919411 }, "geometry": { "type": "LineString", "coordinates": [ [ 72.8986111, 19.0946264 ], [ 72.8991261, 19.0943798 ] ] } },
{ "type": "Feature", "properties": { "asset_id": "R56", "u": 13881023287, "v": 13881023288, "osmid": 1190822947, "highway": "residential", "length_m": 14.108913614200034 }, "geometry": { "type": "LineString", "coordinates": [ [ 72.8927659, 19.1028287 ], [ 72.892761, 19.1027019 ] ] } },
{ "type": "Feature", "properties": { "asset_id": "R57", "u": 13881023288, "v": 13881023287, "osmid": 1190822947, "highway": "residential", "length_m": 14.108913614200034 }, "geometry": { "type": "LineString", "coordinates": [ [ 72.892761, 19.1027019 ], [ 72.8927659, 19.1028287 ] ] } },
{ "type": "Feature", "properties": { "asset_id": "R58", "u": 6431217710, "v": 11043492414, "osmid": 436339858, "highway": "residential", "length_m": 8.6641612202457559 }, "geometry": { "type": "LineString", "coordinates": [ [ 72.878475, 19.059502 ], [ 72.8785526, 19.0595283 ] ] } },
{ "type": "Feature", "properties": { "asset_id": "R59", "u": 11043492414, "v": 6431217710, "osmid": 436339858, "highway": "residential", "length_m": 8.6641612202457559 }, "geometry": { "type": "LineString", "coordinates": [ [ 72.8785526, 19.0595283 ], [ 72.878475, 19.059502 ] ] } },
{ "type": "Feature", "properties": { "asset_id": "R60", "u": 2246472055, "v": 1366008980, "osmid": 22855576, "highway": "tertiary", "length_m": 44.799510352037508 }, "geometry": { "type": "LineString", "coordinates": [ [ 72.8787167, 19.0661193 ], [ 72.8790426, 19.0658596 ] ] } },
{ "type": "Feature", "properties": { "asset_id": "R61", "u": 1366008980, "v": 2246472055, "osmid": 22855576, "highway": "tertiary", "length_m": 44.799510352037508 }, "geometry": { "type": "LineString", "coordinates": [ [ 72.8790426, 19.0658596 ], [ 72.8787167, 19.0661193 ] ] } },
{ "type": "Feature", "properties": { "asset_id": "R62", "u": 1366008980, "v": 1366008998, "osmid": 22855576, "highway": "tertiary", "length_m": 88.869922141775604 }, "geometry": { "type": "LineString", "coordinates": [ [ 72.8790426, 19.0658596 ], [ 72.8794655, 19.0665517 ] ] } },
{ "type": "Feature", "properties": { "asset_id": "R63", "u": 1366008998, "v": 1366008980, "osmid": 22855576, "highway": "tertiary", "length_m": 88.869922141775604 }, "geometry": { "type": "LineString", "coordinates": [ [ 72.8794655, 19.0665517 ], [ 72.8790426, 19.0658596 ] ] } },
{ "type": "Feature", "properties": { "asset_id": "R64", "u": 2244797594, "v": 4357358564, "osmid": 450892328, "highway": "residential", "length_m": 52.515098408732634 }, "geometry": { "type": "LineString", "coordinates": [ [ 72.8734526, 19.0741405 ], [ 72.8730067, 19.0739273 ] ] } },
{ "type": "Feature", "properties": { "asset_id": "R65", "u": 4352245952, "v": 1366008979, "osmid": 122177866, "highway": "tertiary", "length_m": 67.387080036019697 }, "geometry": { "type": "LineString", "coordinates": [ [ 72.8764884, 19.0647485 ], [ 72.8768831, 19.0652261 ] ] } },
{ "type": "Feature", "properties": { "asset_id": "R66", "u": 1366008979, "v": 4352245952, "osmid": 122177866, "highway": "tertiary", "length_m": 67.387080036019697 }, "geometry": { "type": "LineString", "coordinates": [ [ 72.8768831, 19.0652261 ], [ 72.8764884, 19.0647485 ] ] } },
{ "type": "Feature", "properties": { "asset_id": "R67", "u": 1366008979, "v": 1647285761, "osmid": 122177888, "highway": "tertiary", "length_m": 106.50860190869797 }, "geometry": { "type": "LineString", "coordinates": [ [ 72.8768831, 19.0652261 ], [ 72.8760228, 19.0657324 ] ] } },
{ "type": "Feature", "properties": { "asset_id": "R68", "u": 1366008979, "v": 6547549107, "osmid": 152629595, "highway": "tertiary", "length_m": 21.884054970617566 }, "geometry": { "type": "LineString", "coordinates": [ [ 72.8768831, 19.0652261 ], [ 72.87698, 19.0654003 ] ] } },
{ "type": "Feature", "properties": { "asset_id": "R69", "u": 1647285761, "v": 1366008979, "osmid": 122177888, "highway": "tertiary", "length_m": 106.50860190869797 }, "geometry": { "type": "LineString", "coordinates": [ [ 72.8760228, 19.0657324 ], [ 72.8768831, 19.0652261 ] ] } },
{ "type": "Feature", "properties": { "asset_id": "R70", "u": 6547549107, "v": 1366008979, "osmid": 152629595, "highway": "tertiary", "length_m": 21.884054970617566 }, "geometry": { "type": "LineString", "coordinates": [ [ 72.87698, 19.0654003 ], [ 72.8768831, 19.0652261 ] ] } },
{ "type": "Feature", "properties": { "asset_id": "R71", "u": 6430758485, "v": 1647285774, "osmid": 122177886, "highway": "tertiary", "length_m": 43.00763583751759 }, "geometry": { "type": "LineString", "coordinates": [ [ 72.8772521, 19.0704473 ], [ 72.8768454, 19.0704903 ] ] } },
{ "type": "Feature", "properties": { "asset_id": "R72", "u": 1647285774, "v": 6430758485, "osmid": 122177886, "highway": "tertiary", "length_m": 43.00763583751759 }, "geometry": { "type": "LineString", "coordinates": [ [ 72.8768454, 19.0704903 ], [ 72.8772521, 19.0704473 ] ] } },
{ "type": "Feature", "properties": { "asset_id": "R73", "u": 1647285774, "v": 13614215660, "osmid": 122177886, "highway": "tertiary", "length_m": 42.045871435820779 }, "geometry": { "type": "LineString", "coordinates": [ [ 72.8768454, 19.0704903 ], [ 72.8764514, 19.070556 ] ] } },
{ "type": "Feature", "properties": { "asset_id": "R74", "u": 1647285774, "v": 12068096079, "osmid": 151889271, "highway": "residential", "length_m": 25.098023414726654 }, "geometry": { "type": "LineString", "coordinates": [ [ 72.8768454, 19.0704903 ], [ 72.8767228, 19.0702966 ] ] } },
{ "type": "Feature", "properties": { "asset_id": "R75", "u": 13614215660, "v": 1647285774, "osmid": 122177886, "highway": "tertiary", "length_m": 42.045871435820779 }, "geometry": { "type": "LineString", "coordinates": [ [ 72.8764514, 19.070556 ], [ 72.8768454, 19.0704903 ] ] } },
{ "type": "Feature", "properties": { "asset_id": "R76", "u": 12068096079, "v": 1647285774, "osmid": 151889271, "highway": "residential", "length_m": 25.098023414726654 }, "geometry": { "type": "LineString", "coordinates": [ [ 72.8767228, 19.0702966 ], [ 72.8768454, 19.0704903 ] ] } },
{ "type": "Feature", "properties": { "asset_id": "R77", "u": 1366008982, "v": 2246471996, "osmid": 215242163, "highway": "residential", "length_m": 52.477149604664724 }, "geometry": { "type": "LineString", "coordinates": [ [ 72.8755368, 19.0659319 ], [ 72.8754198, 19.0654731 ] ] } },
{ "type": "Feature", "properties": { "asset_id": "R78", "u": 1647285868, "v": 1366028009, "osmid": 122183202, "highway": "tertiary", "length_m": 21.862900169490402 }, "geometry": { "type": "LineString", "coordinates": [ [ 72.8851806, 19.0828954 ], [ 72.8852214, 19.0827026 ] ] } },
{ "type": "Feature", "properties": { "asset_id": "R79", "u": 1366028009, "v": 1647285868, "osmid": 122183202, "highway": "tertiary", "length_m": 21.862900169490402 }, "geometry": { "type": "LineString", "coordinates": [ [ 72.8852214, 19.0827026 ], [ 72.8851806, 19.0828954 ] ] } },
{ "type": "Feature", "properties": { "asset_id": "R80", "u": 1392485609, "v": 2246472422, "osmid": 125344250, "highway": "tertiary", "length_m": 98.176649346161554 }, "geometry": { "type": "LineString", "coordinates": [ [ 72.8874091, 19.075244 ], [ 72.8868374, 19.0759423 ] ] } },
{ "type": "Feature", "properties": { "asset_id": "R81", "u": 2246472422, "v": 1392485609, "osmid": 125344250, "highway": "tertiary", "length_m": 98.176649346161554 }, "geometry": { "type": "LineString", "coordinates": [ [ 72.8868374, 19.0759423 ], [ 72.8874091, 19.075244 ] ] } },
{ "type": "Feature", "properties": { "asset_id": "R82", "u": 2246472422, "v": 13720592991, "osmid": 215242149, "highway": "residential", "length_m": 31.288819270775548 }, "geometry": { "type": "LineString", "coordinates": [ [ 72.8868374, 19.0759423 ], [ 72.8870703, 19.0761176 ] ] } },
{ "type": "Feature", "properties": { "asset_id": "R83", "u": 245668052, "v": 12068010363, "osmid": 275786437, "highway": "tertiary", "length_m": 50.787500297952874 }, "geometry": { "type": "LineString", "coordinates": [ [ 72.8800151, 19.0759669 ], [ 72.8801212, 19.0764125 ] ] } },
{ "type": "Feature", "properties": { "asset_id": "R84", "u": 2248802532, "v": 2248802537, "osmid": 152629605, "highway": "residential", "length_m": 59.053719310194488 }, "geometry": { "type": "LineString", "coordinates": [ [ 72.881747, 19.0576074 ], [ 72.8822676, 19.0578072 ] ] } },
{ "type": "Feature", "properties": { "asset_id": "R85", "u": 2248802537, "v": 2248802532, "osmid": 152629605, "highway": "residential", "length_m": 59.053719310194488 }, "geometry": { "type": "LineString", "coordinates": [ [ 72.8822676, 19.0578072 ], [ 72.881747, 19.0576074 ] ] } },
{ "type": "Feature", "properties": { "asset_id": "R86", "u": 2248802537, "v": 1654348871, "osmid": 152629605, "highway": "residential", "length_m": 78.567967347502517 }, "geometry": { "type": "LineString", "coordinates": [ [ 72.8822676, 19.0578072 ], [ 72.8829602, 19.0580731 ] ] } },
{ "type": "Feature", "properties": { "asset_id": "R87", "u": 2248802537, "v": 2248802551, "osmid": 215438740, "highway": "residential", "length_m": 80.134318643692922 }, "geometry": { "type": "LineString", "coordinates": [ [ 72.8822676, 19.0578072 ], [ 72.8819865, 19.0584771 ] ] } },
{ "type": "Feature", "properties": { "asset_id": "R88", "u": 1654348871, "v": 2248802537, "osmid": 152629605, "highway": "residential", "length_m": 78.567967347502517 }, "geometry": { "type": "LineString", "coordinates": [ [ 72.8829602, 19.0580731 ], [ 72.8822676, 19.0578072 ] ] } },
{ "type": "Feature", "properties": { "asset_id": "R89", "u": 2244797569, "v": 2244797575, "osmid": 1153112037, "highway": "residential", "length_m": 26.305850073561256 }, "geometry": { "type": "LineString", "coordinates": [ [ 72.8754034, 19.0734444 ], [ 72.8751956, 19.0735763 ] ] } },
{ "type": "Feature", "properties": { "asset_id": "R90", "u": 2244797575, "v": 2244797569, "osmid": 1153112037, "highway": "residential", "length_m": 26.305850073561256 }, "geometry": { "type": "LineString", "coordinates": [ [ 72.8751956, 19.0735763 ], [ 72.8754034, 19.0734444 ] ] } },
{ "type": "Feature", "properties": { "asset_id": "R91", "u": 2244797530, "v": 2244797526, "osmid": 215059304, "highway": "residential", "length_m": 19.793733628088425 }, "geometry": { "type": "LineString", "coordinates": [ [ 72.8740818, 19.0720787 ], [ 72.8740884, 19.0719008 ] ] } },
{ "type": "Feature", "properties": { "asset_id": "R92", "u": 2244797526, "v": 2244797530, "osmid": 215059304, "highway": "residential", "length_m": 19.793733628088425 }, "geometry": { "type": "LineString", "coordinates": [ [ 72.8740884, 19.0719008 ], [ 72.8740818, 19.0720787 ] ] } },
{ "type": "Feature", "properties": { "asset_id": "R93", "u": 12070953937, "v": 12070953940, "osmid": 1303395325, "highway": "residential", "length_m": 10.983556632196786 }, "geometry": { "type": "LineString", "coordinates": [ [ 72.8741624, 19.0704489 ], [ 72.8742661, 19.0704366 ] ] } },
{ "type": "Feature", "properties": { "asset_id": "R94", "u": 2246471825, "v": 12071096202, "osmid": 235856026, "highway": "residential", "length_m": 18.61904387405604 }, "geometry": { "type": "LineString", "coordinates": [ [ 72.8886654, 19.0634725 ], [ 72.8885127, 19.0635574 ] ] } },
{ "type": "Feature", "properties": { "asset_id": "R95", "u": 6567709172, "v": 6567709171, "osmid": 699403972, "highway": "residential", "length_m": 45.348294577336453 }, "geometry": { "type": "LineString", "coordinates": [ [ 72.8876159, 19.062044 ], [ 72.8872863, 19.0623072 ] ] } },
{ "type": "Feature", "properties": { "asset_id": "R96", "u": 6567709174, "v": 6567709173, "osmid": 699403973, "highway": "residential", "length_m": 46.456949914209453 }, "geometry": { "type": "LineString", "coordinates": [ [ 72.88737, 19.061747 ], [ 72.8870651, 19.0620495 ] ] } },
{ "type": "Feature", "properties": { "asset_id": "R97", "u": 6586250294, "v": 6586250295, "osmid": 701291969, "highway": "residential", "length_m": 45.018937816935612 }, "geometry": { "type": "LineString", "coordinates": [ [ 72.8869132, 19.0613762 ], [ 72.8866358, 19.0616847 ] ] } },
{ "type": "Feature", "properties": { "asset_id": "R98", "u": 10923992389, "v": 2246471679, "osmid": 1175603772, "highway": "residential", "length_m": 44.357974331661808 }, "geometry": { "type": "LineString", "coordinates": [ [ 72.8866457, 19.0611652 ], [ 72.8863847, 19.0614787 ] ] } },
{ "type": "Feature", "properties": { "asset_id": "R99", "u": 10923992390, "v": 2246471656, "osmid": 215242003, "highway": "tertiary", "length_m": 43.689182104619725 }, "geometry": { "type": "LineString", "coordinates": [ [ 72.8862285, 19.0608363 ], [ 72.8859093, 19.0605846 ] ] } }
]
}
