{
  "type": "FeatureCollection",
  "features": [
    {
      "type": "Feature",
      "geometry": {
        "type": "Point",
        "coordinates": [
          72.8793543303778,
          19.0654774786936
        ]
      },
      "properties": {
        "asset_id": "RS0",
        "asset_type": "suburban_station",
        "name": "Kurla",
        "source": "bmc_arcgis"
      }
    },
    {
      "type": "Feature",
      "geometry": {
        "type": "Point",
        "coordinates": [
          72.8689456446498,
          19.0517072445659
        ]
      },
      "properties": {
        "asset_id": "RS1",
        "asset_type": "suburban_station",
        "name": "Chunna Bhatti",
        "source": "bmc_arcgis"
      }
    },
    {
      "type": "Feature",
      "geometry": {
        "type": "Point",
        "coordinates": [
          72.8899762020042,
          19.0657803013233
        ]
      },
      "properties": {
        "asset_id": "RS2",
        "asset_type": "suburban_station",
        "name": "Tilak Nagar",
        "source": "bmc_arcgis"
      }
    },
    {
      "type": "Feature",
      "geometry": {
        "type": "LineString",
        "coordinates": [
          [
            72.8793543303778,
            19.0654774786936
          ],
          [
            72.8791171647248,
            19.0652443009527
          ],
          [
            72.8786573701544,
            19.0648357144885
          ],
          [
            72.8776506664668,
            19.0639518130967
          ],
          [
            72.877238151119,
            19.0635318184132
          ],
          [
            72.8768072390767,
            19.0631752222125
          ],
          [
            72.8761783465811,
            19.0627287784662
          ],
          [
            72.8740979600377,
            19.0610095730223
          ],
          [
            72.8736396763155,
            19.060556878531
          ],
          [
            72.8729090872563,
            19.0597931922407
          ],
          [
            72.8725607932282,
            19.0593479216159
          ],
          [
            72.8715690339259,
            19.0580783936259
          ],
          [
            72.8714177573042,
            19.0578702356024
          ],
          [
            72.8712598585185,
            19.0576522990457
          ],
          [
            72.8708254778367,
            19.0570192697302
          ],
          [
            72.8705708696896,
            19.0566619178127
          ],
          [
            72.8702799748007,
            19.0561542826759
          ],
          [
            72.8701160600052,
            19.0557942116408
          ],
          [
            72.8698213543217,
            19.0551969882741
          ],
          [
            72.8696437790864,
            19.0547425031506
          ],
          [
            72.8694856041278,
            19.0543212311382
          ],
          [
            72.8693403816096,
            19.0538209958749
          ],
          [
            72.8692107367963,
            19.0531565934998
          ],
          [
            72.8691203893386,
            19.0528250332692
          ],
          [
            72.8690451294022,
            19.0523222846278
          ],
          [
            72.8689456446498,
            19.0517072445659
          ]
        ]
      },
      "properties": {
        "asset_id": "RL0",
        "asset_type": "suburban_line",
        "name": "HARBOUR RAILWAY",
        "source": "bmc_arcgis"
      }
    },
    {
      "type": "Feature",
      "geometry": {
        "type": "LineString",
        "coordinates": [
          [
            72.8643611543405,
            19.0380290585816
          ],
          [
            72.8646085645922,
            19.0383298867746
          ],
          [
            72.865227871723,
            19.0390102158766
          ],
          [
            72.8657362642618,
            19.0395886974464
          ],
          [
            72.8664128190628,
            19.0403497255629
          ],
          [
            72.8668761683452,
            19.0409071599147
          ],
          [
            72.8673576816175,
            19.041563314565
          ],
          [
            72.8678283051012,
            19.0422275531602
          ],
          [
            72.8681853786349,
            19.0428268567317
          ],
          [
            72.8684022380805,
            19.0432521426223
          ],
          [
            72.8687060072843,
            19.0439698653444
          ],
          [
            72.8689116181513,
            19.044600256286
          ],
          [
            72.8690670386778,
            19.045104873601
          ],
          [
            72.869152744462,
            19.0454917035545
          ],
          [
            72.8692216571985,
            19.0458413968002
          ],
          [
            72.8692846583357,
            19.0463162148609
          ],
          [
            72.8693429991706,
            19.0471096334204
          ],
          [
            72.8693616007676,
            19.0479817294082
          ],
          [
            72.8693061331417,
            19.0486910203114
          ],
          [
            72.8692571046421,
            19.0491501782261
          ],
          [
            72.869179787374,
            19.0496274812515
          ],
          [
            72.8690981276892,
            19.0501067853588
          ],
          [
            72.8690412255925,
            19.0505063348733
          ],
          [
            72.8690050307154,
            19.0508055580996
          ],
          [
            72.8689445455274,
            19.0516545279679
          ],
          [
            72.8689456446498,
            19.0517072445659
          ]
        ]
      },
      "properties": {
        "asset_id": "RL1",
        "asset_type": "suburban_line",
        "name": "HARBOUR RAILWAY",
        "source": "bmc_arcgis"
      }
    },
    {
      "type": "Feature",
      "geometry": {
        "type": "LineString",
        "coordinates": [
          [
            72.9012441362589,
            19.0625976174705
          ],
          [
            72.9009472559975,
            19.0627364738687
          ],
          [
            72.9003284914489,
            19.0630065919539
          ],
          [
            72.8998624681759,
            19.0632353319009
          ],
          [
            72.8991265777314,
            19.0635472253046
          ],
          [
            72.8983865741377,
            19.0637543702586
          ],
          [
            72.8973021556079,
            19.0639944489006
          ],
          [
            72.8961288618106,
            19.0642642933914
          ],
          [
            72.8951436876985,
            19.0645075432894
          ],
          [
            72.8935933650448,
            19.0648921036496
          ],
          [
            72.8922834732132,
            19.0652096178327
          ],
          [
            72.8910536903932,
            19.0655075151543
          ],
          [
            72.8900424248398,
            19.0657648055631
          ],
          [
            72.8899762020042,
            19.0657803013233
          ],
          [
            72.8851407704115,
            19.0669359576941
          ],
          [
            72.8834635453137,
            19.0672820300824
          ],
          [
            72.8832175131659,
            19.067279205579
          ],
          [
            72.8828083191681,
            19.0672067797695
          ],
          [
            72.88238355342,
            19.0670568079731
          ],
          [
            72.8819497086554,
            19.0668727353768
          ],
          [
            72.881596575603,
            19.0667802353328
          ],
          [
            72.8810453617505,
            19.0665510486414
          ],
          [
            72.8806717330457,
            19.0662838632517
          ],
          [
            72.8800379116658,
            19.0659070969748
          ],
          [
            72.8797846604179,
            19.0657479334199
          ],
          [
            72.8793543303778,
            19.0654774786936
          ]
        ]
      },
      "properties": {
        "asset_id": "RL2",
        "asset_type": "suburban_line",
        "name": "HARBOUR RAILWAY",
        "source": "bmc_arcgis"
      }
    },
    {
      "type": "Feature",
      "geometry": {
        "type": "LineString",
        "coordinates": [
          [
            72.8640037012676,
            19.0477097291027
          ],
          [
            72.8640413063799,
            19.047765174211
          ],
          [
            72.8645435694381,
            19.0485113225846
          ],
          [
            72.8648477519042,
            19.0489638419488
          ],
          [
            72.8653610080943,
            19.0496964060531
          ],
          [
            72.865743119306,
            19.0502560780085
          ],
          [
            72.8659733360006,
            19.0505740686142
          ],
          [
            72.8663561075446,
            19.0510823350755
          ],
          [
            72.8666889992994,
            19.0515454669122
          ],
          [
            72.8671355060373,
            19.0521435835963
          ],
          [
            72.8677661341207,
            19.0530008884381
          ],
          [
            72.8682509776542,
            19.0537022695841
          ],
          [
            72.8685974621166,
            19.054230678739
          ],
          [
            72.8690082497795,
            19.054804386631
          ],
          [
            72.8695638704632,
            19.0556094089627
          ],
          [
            72.8700879784174,
            19.0563420873979
          ],
          [
            72.8707688727503,
            19.0573200280843
          ],
          [
            72.8712280318445,
            19.0579558844339
          ],
          [
            72.8715927719037,
            19.0584673622804
          ],
          [
            72.8719620806869,
            19.0589034855684
          ],
          [
            72.872596711451,
            19.0597334050823
          ],
          [
            72.8730657581353,
            19.0602632205892
          ],
          [
            72.8734745437157,
            19.0607135083412
          ],
          [
            72.8740833262141,
            19.0613100550287
          ],
          [
            72.8745539991963,
            19.0617130697813
          ],
          [
            72.8753349135977,
            19.0623801468174
          ],
          [
            72.8757056377635,
            19.0627066015952
          ],
          [
            72.876344665237,
            19.0631938107454
          ],
          [
            72.8768450985271,
            19.0635251851611
          ],
          [
            72.8793543303778,
            19.0654774786936
          ]
        ]
      },
      "properties": {
        "asset_id": "RL3",
        "asset_type": "suburban_line",
        "name": "CENTRAL RAILWAY",
        "source": "bmc_arcgis"
      }
    },
    {
      "type": "Feature",
      "geometry": {
        "type": "LineString",
        "coordinates": [
          [
            72.8793543303778,
            19.0654774786936
          ],
          [
            72.8799661402316,
            19.065936267638
          ],
          [
            72.880828682692,
            19.0666065827978
          ],
          [
            72.8813371504555,
            19.0670575581245
          ],
          [
            72.8819905811019,
            19.0675758727822
          ],
          [
            72.8828417228389,
            19.0682387513013
          ],
          [
            72.8832268495613,
            19.0685651914003
          ],
          [
            72.8839696701607,
            19.0691638572218
          ],
          [
            72.8856152263579,
            19.0704269192954
          ],
          [
            72.8863793988582,
            19.0709902741429
          ],
          [
            72.8879988287855,
            19.0721982887343
          ],
          [
            72.8887018579443,
            19.0727426911825
          ],
          [
            72.8897509111115,
            19.0735391595508
          ],
          [
            72.8903361619041,
            19.0739909944318
          ],
          [
            72.8915750470128,
            19.0749501657611
          ],
          [
            72.8923615910613,
            19.075568483573
          ],
          [
            72.8935697585333,
            19.076530943068
          ],
          [
            72.8944103580982,
            19.0771243309318
          ],
          [
            72.8955270593161,
            19.0780383013502
          ],
          [
            72.8959489160299,
            19.0783641985768
          ],
          [
            72.8972828728509,
            19.0793973961606
          ],
          [
            72.8975799791421,
            19.0796208736982
          ]
        ]
      },
      "properties": {
        "asset_id": "RL4",
        "asset_type": "suburban_line",
        "name": "CENTRAL RAILWAY",
        "source": "bmc_arcgis"
      }
    },
    {
      "type": "Feature",
      "geometry": {
        "type": "Point",
        "coordinates": [
          72.8892511920001,
          19.1026122110001
        ]
      },
      "properties": {
        "asset_id": "MS0",
        "asset_type": "metro_station",
        "name": "Saki Naka",
        "source": "bmc_arcgis"
      }
    },
    {
      "type": "Feature",
      "geometry": {
        "type": "Point",
        "coordinates": [
          72.8937359650001,
          19.0971306430001
        ]
      },
      "properties": {
        "asset_id": "MS1",
        "asset_type": "metro_station",
        "name": "Asalpha",
        "source": "bmc_arcgis"
      }
    },
    {
      "type": "Feature",
      "geometry": {
        "type": "LineString",
        "coordinates": [
          [
            72.8199288690001,
            19.130588423
          ],
          [
            72.8257095430001,
            19.1293517780001
          ],
          [
            72.8318145950001,
            19.1279991480001
          ],
          [
            72.8351089590001,
            19.127212251
          ],
          [
            72.8359727220001,
            19.1272106800001
          ],
          [
            72.837278757,
            19.127040134
          ],
          [
            72.8390532160001,
            19.126603876
          ],
          [
            72.840349239,
            19.1262482930001
          ],
          [
            72.8410287500001,
            19.12586514
          ],
          [
            72.8414256600001,
            19.125496829
          ],
          [
            72.8417272,
            19.124943069
          ],
          [
            72.841946691,
            19.1243758300001
          ],
          [
            72.842096681,
            19.1241970460001
          ],
          [
            72.8434385960001,
            19.1235001280001
          ],
          [
            72.8467141360001,
            19.1217836330001
          ],
          [
            72.8517033310001,
            19.1186527450001
          ],
          [
            72.855207573,
            19.116587392
          ],
          [
            72.8573066960001,
            19.1153515500001
          ],
          [
            72.8579415520001,
            19.115106509
          ],
          [
            72.8601881170001,
            19.114852235
          ],
          [
            72.860821349,
            19.114739285
          ],
          [
            72.8637781,
            19.113311933
          ],
          [
            72.864542344,
            19.112918227
          ],
          [
            72.8670474240001,
            19.1122209210001
          ],
          [
            72.871725278,
            19.1109114860001
          ],
          [
            72.8742603650001,
            19.1101492070001
          ],
          [
            72.877575484,
            19.108876717
          ],
          [
            72.8805922870001,
            19.1077495430001
          ],
          [
            72.8816254770001,
            19.1075421080001
          ],
          [
            72.8832560260001,
            19.107413794
          ],
          [
            72.8841222720001,
            19.107041064
          ],
          [
            72.884528043,
            19.106694819
          ],
          [
            72.8861569860001,
            19.1047868050001
          ],
          [
            72.8867425970001,
            19.104278252
          ],
          [
            72.8892511920001,
            19.1026122110001
          ],
          [
            72.8901566750001,
            19.101863602
          ],
          [
            72.891037752,
            19.101016541
          ],
          [
            72.8917916080001,
            19.0998458660001
          ],
          [
            72.8927960220001,
            19.098152564
          ],
          [
            72.8931753740001,
            19.097689222
          ],
          [
            72.8937359650001,
            19.0971306430001
          ],
          [
            72.8951655960001,
            19.0962243990001
          ],
          [
            72.896951313,
            19.0951047140001
          ],
          [
            72.8988375700001,
            19.093903197
          ],
          [
            72.8999006560001,
            19.093419124
          ],
          [
            72.9008436170001,
            19.093132449
          ],
          [
            72.9028854000001,
            19.092013867
          ],
          [
            72.903965955,
            19.091497648
          ],
          [
            72.9050231130001,
            19.0911563120001
          ],
          [
            72.905602726,
            19.091107268
          ],
          [
            72.9065072070001,
            19.091188779
          ],
          [
            72.9068633750001,
            19.091236313
          ],
          [
            72.907137839,
            19.091206044
          ],
          [
            72.907415471,
            19.0910535370001
          ],
          [
            72.9075976940001,
            19.0907939
          ],
          [
            72.90773304,
            19.090406887
          ],
          [
            72.907764382,
            19.089879927
          ],
          [
            72.9077941690001,
            19.0894407330001
          ],
          [
            72.9079224660001,
            19.08908831
          ],
          [
            72.908019068,
            19.0888419820001
          ],
          [
            72.9080756170001,
            19.0874367060001
          ],
          [
            72.908120076,
            19.0860247900001
          ]
        ]
      },
      "properties": {
        "asset_id": "ML0",
        "asset_type": "metro_line",
        "name": "Metro_Line_1",
        "source": "bmc_arcgis"
      }
    }
  ]
}